JILIN-1                 
1 40961U 15057D   26196.17319470  .00000359  00000+0  56080-4 0  9993
2 40961  97.6520 194.1522 0017228 166.9666 193.1994 14.78201325579746
JILIN-1 03              
1 41914U 17002B   26196.19115609  .00007618  00000+0  17915-3 0  9992
2 41914  97.1946 202.8936 0007877  79.5052 280.7082 15.42230935526176
JILIN-1 04              
1 43022U 17074A   26196.17035528  .00008422  00000+0  19223-3 0  9990
2 43022  97.4882 306.5450 0005238 100.2894 259.8944 15.43130795478587
JILIN-1 05              
1 43023U 17074B   26196.16896458  .00004670  00000+0  14312-3 0  9992
2 43023  97.4885 302.7114 0006447 124.6472 235.5379 15.34284896478294
JILIN-1 06              
1 43024U 17074C   26196.21009480  .00003443  00000+0  10708-3 0  9992
2 43024  97.4811 299.7251 0008088 134.0779 226.1130 15.33995965478138
JILIN-1 07              
1 43159U 18008E   26196.19026786  .00004938  00000+0  14689-3 0  9996
2 43159  97.1763 215.3792 0006740 328.1661  31.9175 15.35164252469290
JILIN-1 08              
1 43160U 18008F   26196.21030230  .00003320  00000+0  10320-3 0  9992
2 43160  97.1801 214.6834 0005306 352.5568   7.5596 15.34009973469246
JILIN-1 09              
1 43943U 19005B   26196.21254898  .00002500  00000+0  11679-3 0  9994
2 43943  97.4749 290.9404 0002353  36.6120 323.5275 15.20740936413400
JILIN-1 10              
1 43946U 19005E   26196.19417032  .00003245  00000+0  12899-3 0  9997
2 43946  97.4800 295.0049 0008566 169.7909 190.3504 15.26006585413582
